OBJECT_NAME,OBJECT_ID,EPOCH,MEAN_MOTION,ECCENTRICITY,INCLINATION,RA_OF_ASC_NODE,ARG_OF_PERICENTER,MEAN_ANOMALY,EPHEMERIS_TYPE,CLASSIFICATION_TYPE,NORAD_CAT_ID,ELEMENT_SET_NO,REV_AT_EPOCH,BSTAR,MEAN_MOTION_DOT,MEAN_MOTION_DDOT
STARLINK-2468,2021-027AM,2026-07-16T06:45:59.782752,15.31712534,.00010483,53.1593,287.0686,93.1720,266.9402,0,U,48127,999,29221,-.305013E-5,-.46E-5,0
STARLINK-2469,2021-027AN,2026-07-16T01:43:44.611968,15.30230125,.00050706,53.1005,229.6867,6.5838,353.5228,0,U,48128,999,29297,.89649321E-3,.26319E-3,0
STARLINK-2471,2021-027AP,2026-07-16T05:25:58.243584,15.31700008,.00007687,53.1601,287.4953,69.1936,290.9147,0,U,48129,999,29220,.3519161E-4,.727E-5,0
STARLINK-2472,2021-027AQ,2026-07-15T18:42:10.585152,15.31694817,.00013909,53.1605,292.1951,58.8342,301.2796,0,U,48130,999,29210,.9979036E-5,-.56E-6,0
STARLINK-2473,2021-027AR,2026-07-16T05:48:24.612192,15.31703163,.00012028,53.1591,274.7129,114.4795,245.6332,0,U,48131,999,29237,-.68886085E-4,-.2502E-4,0
STARLINK-2474,2021-027AS,2026-07-16T05:47:01.193856,15.31701501,.00009839,53.1599,289.6417,97.9413,262.1701,0,U,48132,999,29216,-.21443638E-4,-.103E-4,0
STARLINK-2475,2021-027AT,2026-07-16T06:12:54.080928,15.31711508,.00007359,53.1601,287.1730,77.7867,282.3217,0,U,48133,999,29221,.47906244E-4,.1123E-4,0
STARLINK-2476,2021-027AU,2026-07-15T13:53:00.678048,15.31697200,.0001048,53.1590,290.1957,54.2004,305.9095,0,U,48134,999,29210,.12365E-4,.19E-6,0
STARLINK-2478,2021-027AV,2026-07-15T12:40:11.689248,15.31695630,.00011284,53.1602,293.1447,73.5034,286.6091,0,U,48135,999,29206,.3734348E-4,.794E-5,0
STARLINK-2479,2021-027AW,2026-07-16T06:46:29.658144,15.31704970,.00011605,53.1612,287.2137,99.9617,260.1515,0,U,48136,999,29221,.27162887E-4,.478E-5,0
STARLINK-2480,2021-027AX,2026-07-16T05:49:24.621312,15.31713783,.00016775,53.1605,277.2018,108.0819,252.0365,0,U,48137,999,29233,-.12795037E-3,-.4335E-4,0
STARLINK-2481,2021-027AY,2026-07-15T18:35:52.169568,15.31700674,.00010934,53.1608,291.7934,51.2879,308.8220,0,U,48138,999,29210,.38854555E-4,.841E-5,0
STARLINK-2482,2021-027AZ,2026-07-16T04:40:48.269568,15.31706061,.00010006,53.1580,274.8077,104.9696,255.1416,0,U,48139,999,29237,.3926784E-5,-.243E-5,0
STARLINK-2483,2021-027BA,2026-07-16T05:46:07.289760,15.31698863,.00011183,53.1608,287.5431,76.8331,283.2795,0,U,48140,999,29220,.42054727E-4,.94E-5,0
STARLINK-2485,2021-027BC,2026-07-15T12:07:34.301568,15.31698755,.00010895,53.1604,278.3398,78.4797,281.6327,0,U,48142,999,29226,.24246477E-4,.387E-5,0
STARLINK-2486,2021-027BD,2026-07-16T05:18:41.022432,15.42332542,.00025657,53.1530,218.6876,5.9980,354.1057,0,U,48143,999,29316,.76020965E-3,.33005E-3,0
STARLINK-2487,2021-027BE,2026-07-16T05:47:52.556064,15.31707624,.00012671,53.1596,274.3683,97.6863,262.4282,0,U,48144,999,29237,.46729658E-4,.1085E-4,0
STARLINK-2491,2021-027BJ,2026-07-16T05:59:32.855712,15.31704582,.00011015,53.1590,287.5414,68.0485,292.0634,0,U,48148,999,29219,.52967622E-4,.1279E-4,0
STARLINK-2492,2021-027BK,2026-07-15T17:49:51.477888,15.31684614,.00011038,53.1597,277.1344,80.8066,279.3060,0,U,48149,999,29229,.41653419E-4,.927E-5,0
STARLINK-2493,2021-027BL,2026-07-15T11:13:49.905408,15.31696789,.00012096,53.1619,278.2254,58.4143,301.6976,0,U,48150,999,29226,.33265638E-4,.667E-5,0
STARLINK-2503,2021-027BM,2026-07-16T05:55:05.655072,15.31707913,.00012229,53.1602,274.5062,61.6505,298.4620,0,U,48151,999,29238,.48752709E-4,.1148E-4,0
SHIYAN-6 03 (SY-6 03),2021-028A,2026-07-15T23:52:16.348224,13.77602334,.00464828,99.5280,210.9704,12.9363,347.2969,0,U,48157,999,26347,.11136814E-4,-.34E-6,0
ONEWEB-0176,2021-031A,2026-07-16T04:19:00.569280,13.14502516,.00021432,87.8970,283.9228,100.8453,259.2918,0,U,48210,999,25212,-.20680288E-3,-.64E-6,0
ONEWEB-0184,2021-031B,2026-07-16T05:29:48.317280,13.14502709,.00026471,87.8975,283.9155,113.9667,246.1740,0,U,48211,999,25210,.73172741E-3,.284E-5,0
ONEWEB-0179,2021-031C,2026-07-16T05:25:15.035808,14.25549552,.0221836,87.8992,279.9849,162.0874,198.8301,0,U,48212,999,25318,.62477539E-4,.213E-5,0
ONEWEB-0180,2021-031D,2026-07-16T05:34:22.509408,13.14503219,.00024755,87.8978,283.9118,98.5843,261.5567,0,U,48213,999,25203,.73829428E-3,.287E-5,0
ONEWEB-0218,2021-031E,2026-07-16T04:16:43.312512,13.14503620,.00028458,87.8980,283.9213,109.0488,251.0950,0,U,48214,999,25218,-.12907751E-3,-.35E-6,0
ONEWEB-0209,2021-031F,2026-07-16T05:50:21.618528,13.14503616,.00022357,87.8970,283.9229,95.8065,264.3319,0,U,48215,999,25219,.42261059E-3,.169E-5,0
ONEWEB-0198,2021-031G,2026-07-16T05:27:43.386336,13.14502779,.00024763,87.8960,283.9233,99.2810,260.8600,0,U,48216,999,25230,.70234261E-3,.273E-5,0
ONEWEB-0189,2021-031H,2026-07-16T03:56:10.893408,13.14502387,.00023852,87.8971,283.9253,99.9734,260.1665,0,U,48217,999,25203,.5281776E-3,.209E-5,0
ONEWEB-0196,2021-031J,2026-07-16T05:13:49.213344,13.14502847,.00021939,87.8966,283.9230,98.0914,262.0465,0,U,48218,999,25204,.28131272E-3,.117E-5,0
ONEWEB-0183,2021-031K,2026-07-16T04:37:16.541184,13.14502591,.00019718,87.8966,283.9256,94.1144,266.0211,0,U,48219,999,25213,-.41024201E-3,-.139E-5,0
ONEWEB-0185,2021-031L,2026-07-16T05:14:56.072256,13.14504155,.00022038,87.8975,283.9161,88.7207,271.4175,0,U,48220,999,25206,.48184297E-3,.191E-5,0
ONEWEB-0187,2021-031M,2026-07-16T04:46:12.324864,13.14502988,.00021921,87.8967,283.9335,95.8845,264.2535,0,U,48221,999,25207,-.46565706E-3,-.16E-5,0
ONEWEB-0192,2021-031N,2026-07-16T05:52:38.271360,13.14503391,.00021318,87.8968,283.9145,100.2603,259.8767,0,U,48222,999,25199,.39903034E-3,.161E-5,0
ONEWEB-0219,2021-031P,2026-07-16T05:22:55.977600,13.14503481,.00022093,87.8975,283.9122,93.5407,266.5975,0,U,48223,999,25219,.52561277E-3,.208E-5,0
ONEWEB-0202,2021-031Q,2026-07-16T04:55:33.320064,13.14502718,.00026712,87.8970,283.9280,106.4348,253.7075,0,U,48224,999,25217,-.22889133E-3,-.72E-6,0
ONEWEB-0204,2021-031R,2026-07-16T03:55:01.660224,13.14502275,.00017849,87.8971,283.9308,88.4115,271.7219,0,U,48225,999,25206,.11546643E-2,.441E-5,0
ONEWEB-0205,2021-031S,2026-07-16T05:09:14.818176,13.14503060,.00023086,87.8975,283.9156,94.8266,265.3127,0,U,48226,999,25208,.14031729E-3,.65E-6,0
ONEWEB-0206,2021-031T,2026-07-16T04:30:25.217568,13.14501755,.00018919,87.8971,283.9209,101.7453,258.3889,0,U,48227,999,25203,-.47710609E-3,-.164E-5,0
ONEWEB-0182,2021-031U,2026-07-16T04:23:33.345312,13.14504404,.00019188,87.8968,283.9286,93.9787,266.1562,0,U,48228,999,25224,-.30572401E-3,-.101E-5,0
ONEWEB-0186,2021-031V,2026-07-16T04:39:33.304608,13.14503129,.0002135,87.8978,283.9197,97.2145,262.9228,0,U,48229,999,25219,-.46561067E-3,-.16E-5,0
ONEWEB-0181,2021-031W,2026-07-15T18:59:31.346592,13.14501805,.000221,87.8963,284.0243,98.3344,261.8036,0,U,48230,999,25199,.1941045E-3,.85E-6,0
ONEWEB-0188,2021-031X,2026-07-16T05:02:23.480736,13.14502507,.00020741,87.8959,283.9404,97.3978,262.7388,0,U,48231,999,25195,.15208205E-4,.18E-6,0
ONEWEB-0220,2021-031Y,2026-07-16T04:09:53.554464,13.14494147,.00021928,87.8978,283.9250,91.8170,268.3211,0,U,48232,999,25221,.20957538E-3,.9E-6,0
ONEWEB-0165,2021-031Z,2026-07-16T04:50:58.627680,13.14504130,.00024523,87.8967,283.9303,101.1918,258.9487,0,U,48233,999,25217,-.31275249E-3,-.103E-5,0
ONEWEB-0199,2021-031AA,2026-07-16T04:28:08.626944,13.14502449,.00018948,87.8977,283.9210,100.7215,259.4128,0,U,48234,999,25207,-.46983314E-3,-.161E-5,0
ONEWEB-0203,2021-031AB,2026-07-16T04:14:26.424672,13.14501444,.00020961,87.8974,283.9254,105.0659,255.0703,0,U,48235,999,25208,-.79233409E-4,-.17E-6,0
ONEWEB-0197,2021-031AC,2026-07-16T05:27:18.630144,13.14502600,.00019682,87.8963,283.8996,91.6393,268.4962,0,U,48236,999,25200,.66882448E-3,.261E-5,0
ONEWEB-0194,2021-031AD,2026-07-16T04:57:48.929184,13.14504522,.00019587,87.8966,283.9268,105.2932,254.8414,0,U,48237,999,25217,-.19397477E-3,-.59E-6,0
ONEWEB-0193,2021-031AE,2026-07-16T05:20:40.140384,13.14502771,.00018262,87.8966,283.9140,110.4582,249.6744,0,U,48238,999,25212,.54595678E-3,.215E-5,0
ONEWEB-0191,2021-031AF,2026-07-15T18:38:58.390944,13.14506187,.00019267,87.8977,284.0033,95.5221,264.6129,0,U,48239,999,25192,.49298461E-3,.196E-5,0
ONEWEB-0195,2021-031AG,2026-07-16T05:03:31.882752,13.14503974,.0002457,87.8973,283.9174,99.2847,260.8561,0,U,48240,999,25196,.68054664E-4,.38E-6,0
ONEWEB-0201,2021-031AH,2026-07-16T04:46:35.928480,13.14502686,.00020348,87.8968,283.9337,90.7140,269.4223,0,U,48241,999,25219,-.3837883E-3,-.129E-5,0
ONEWEB-0207,2021-031AJ,2026-07-16T04:17:50.739936,13.14501182,.00020432,87.8975,283.9239,91.7628,268.3736,0,U,48242,999,25210,-.18538695E-3,-.56E-6,0
ONEWEB-0208,2021-031AK,2026-07-16T05:41:12.890400,13.14502475,.00023774,87.8970,283.9181,101.7610,258.3786,0,U,48243,999,25212,.71211088E-3,.277E-5,0
ONEWEB-0200,2021-031AL,2026-07-16T04:48:41.931648,13.14502357,.00021254,87.8980,283.9146,97.8700,262.2671,0,U,48244,999,25204,-.32400436E-3,-.107E-5,0
ONEWEB-0217,2021-031AM,2026-07-16T05:11:31.732800,13.14503597,.00024121,87.8978,283.9155,101.8083,258.3317,0,U,48245,999,25199,.2975105E-3,.123E-5,0
PLEIADES NEO 3,2021-034A,2026-07-16T07:00:38.176992,14.81668086,.00013237,97.8944,271.6400,95.1532,264.9832,0,U,48268,999,28196,.35025074E-4,.224E-5,0
LEMUR-2-AMANDA-SVANTE,2021-034B,2026-07-16T04:01:03.279648,15.35996622,.00046191,97.5752,276.2525,140.8995,219.2583,0,U,48269,999,28550,.51162493E-3,.17874E-3,0
AII-BRAVO,2021-034C,2026-07-16T02:29:04.294752,15.03674219,.00063516,97.5598,251.3552,158.6809,201.4683,0,U,48270,999,28396,.21123578E-3,.2834E-4,0
TYVAK-182A,2021-034D,2026-07-16T03:51:31.014432,15.06410299,.00048765,97.5713,255.5775,215.9101,144.1799,0,U,48271,999,28419,.15194297E-3,.2178E-4,0
NORSAT 3,2021-034E,2026-07-16T06:09:17.656704,15.05497400,.00071252,97.5283,253.8303,189.9071,170.2017,0,U,48272,999,28421,.14267185E-3,.1992E-4,0
LEMUR-2-SPECIAL-K,2021-034F,2026-07-16T05:21:10.252512,15.75087247,.00062789,97.5633,286.4062,212.8733,147.2141,0,U,48273,999,28624,.11202085E-2,.169731E-2,0
